STARLINK-1283
1 45389U 20019AF  26092.73670345  .00066146  00000+0  68688-3 0  9996
2 45389  53.0442 352.7517 0000630 129.7917 230.3152 15.64038979334282
STARLINK-2113
1 47392U 21005AV  26092.83335647  .00171210  00000+0  17435-2 0  9994
2 47392  53.0484 258.6074 0005366 237.4058 162.6006 15.64067351  5927
